#dP2018  8 12  0  0  0.00000000      96 __u+U ITR00 FIT  IAC
## 2014      0.00000000   900.00000000 58342 0.0000000000000
+   85   C02C03C04C05C06C07C08C09C10C11C12C13C14E01E02E03E04
+        E05E07E08E09E11E12E14E18E19E24E26E30G01G02G03G05G06
+        G07G08G09G10G11G12G13G14G15G16G17G18G19G20G21G22G23
+        G24G25G26G27G28G29G30G31G32J01J02J03R01R02R03R04R07
+        R08R09R10R11R13R14R15R16R17R18R19R20R21R22R23R24R26
++        12 12  0 12  8  9  8  8  8  8  8  8  8  6  6  6  6
++         6  7  6  6  6  6  6  6  7  6  7  6  3  3  3  3  3
++         3  3  3  3  3  3  3  3  3  3  3  3  3  3  3  3  3
++         3  3  3  3  3  3  3  3  3 10 10 11  5  5  5  5  5
++         5  6  5  5  5  5  5  5  5  5  5  5  6  5  5  5  8
%c M  cc GPS ccc cccc cccc cccc cccc ccccc ccccc ccccc ccccc
%c cc cc ccc ccc cccc cccc cccc cccc ccccc ccccc ccccc ccccc
%f  0.0000000  0.000000000  0.00000000000  0.000000000000000
%f  0.0000000  0.000000000  0.00000000000  0.000000000000000
%i    0    0    0    0      0      0      0      0         0
%i    0    0    0    0      0      0      0      0         0
/* INFORMATION & ANALYSIS CENTER (IAC) OF MCC   (RAPID DATA)
/* S/V CLOCKS ARE ALIGNED TO GPS & GLONASS TIME RESPECTIVELY
/* USING THE BROADCAST EPHEMERIS                            
/* PCV:IGS14_2000 OL/AL:FES2004  NONE     YN ORB:CoN CLK:CoN
*  2018 08 12 18 45  0.00000000
PC02   4416.188696  41913.001948  -1329.097524    -98.164332
PC03 -14813.549857  39449.130868   -509.203424    355.136713
PC04      0.000000      0.000000      0.000000 999999.999999
PC05  21973.422270  35966.342003   -941.881119    -42.594900
PC06 -20450.512796  35987.937657   7392.238122    221.311267
PC07  -8065.365195  31326.216758  27417.173517     26.516628
PC08 -18734.229884  18423.395051 -32983.919917    480.793254
PC09 -11604.769639  35657.685907  19147.232022    133.539140
PC10   3982.061829  38315.675714  17720.161754     13.843239
PC11  23111.347375   1589.470508 -15451.436522   -632.491454
PC12   6380.317752  14040.314208 -23205.535529    556.547692
PC13  -3725.506487  23268.255105 -34965.943676   -223.551657
PC14  14412.238124   9528.439167  21964.793010    278.129943
PE01 -15243.421420   5993.437132  24657.207296   -411.328720
PE02  15232.132845  -6009.834848 -24656.060364     23.228124
PE03  20172.934184 -16536.664580  13986.155672    -64.978642
PE04 -11338.407139  27055.657730   3964.969016    -94.870483
PE05  17215.515891   3707.319257  23799.311531    212.489172
PE07  -4192.056426 -21717.654787 -19653.511178    -18.889953
PE08  11110.987027 -27138.277930  -3968.722495   6524.837459
PE09   4271.006760  21659.551867  19737.719630   6707.898329
PE11  13175.333785  14407.198205 -22263.407712   3629.680426
PE12  -9944.786658  15832.963347 -22946.162162   4812.537169
PE14 -13869.413257  22271.483241 -12483.662729   6536.445226
PE18  23642.254535 -15530.615617   -439.107236   5988.100908
PE19 -20288.944000  14999.685730 -15466.701032    -13.251994
PE24  14192.378462  25869.492387   2316.107623   6550.678296
PE26 -27894.342683  -4811.642745   8664.663314   5601.425158
PE30    779.170441 -22603.149313 -19098.515795   5601.269514
PG01  21539.067030  14025.361584  -7457.391635    -75.725457
PG02  -2787.554446 -16717.851076  21067.457562     30.033487
PG03  13235.806936  17476.091971  15015.804933    120.511072
PG05  -2363.590385 -26150.611886   3036.590133     -3.291310
PG06  14042.142576  -9540.362339  20460.667759    377.002170
PG07  25279.837930   4930.220143  -7176.789965    142.878890
PG08   4887.269397  14938.700634 -21342.398508   -111.422547
PG09  21131.416027  -2798.090574  15820.466917    511.213549
PG10 -12012.025276  12803.584011 -19837.962375    186.959219
PG11  18629.580197  11271.522849 -15648.690428   -725.140253
PG12  -9218.175483 -22386.189891  10937.425162    314.535004
PG13   4384.817777 -18120.333393 -19019.419351    -91.085187
PG14 -16711.163368  18730.517704   8703.126110    -97.626285
PG15  -9950.061891 -12610.982972 -21359.157265   -348.664399
PG16   -987.872080  25959.394099   4164.682675     13.863296
PG17  21654.671880 -15237.256167   -440.693899    -68.025046
PG18  14664.564597  16557.979315 -15299.427837     44.868540
PG19  17798.322744 -17993.276844   8000.460018   -412.352622
PG20 -15780.818019   2639.577703 -21323.624620    514.037782
PG21 -24407.129167   -819.005361  -9591.971064   -353.607237
PG22  11197.717257  22758.204757   8167.867631   -487.151365
PG23  15527.413447   6781.724087  20839.919308   -212.928008
PG24 -19135.592511 -15060.210065 -11067.504923    -53.848745
PG25 -15005.076707  -8916.681984  19905.236121   -630.607484
PG26  -6105.299610  21809.126240  13757.346134    -53.813414
PG27  -6641.692252  19658.686406 -16510.933968    354.450292
PG28  12974.368591  -9644.185115 -20468.375606    737.777210
PG29 -20351.121088    486.717451  17031.889541    397.235824
PG30  20979.345719  -3323.128849 -16034.285377     38.519524
PG31 -12625.066803  10513.916730  20984.376312    101.131856
PG32 -20885.808224  16310.128723   -735.987671   -453.198444
PJ01 -18244.785353  32265.753630 -15515.757638   -144.391505
PJ02 -26316.920958  19592.107390  31120.669819    -10.009026
PJ03 -33962.330056  24961.895954   3438.116063     -4.257586
PR01  -7540.597010  24375.299891   -336.765164     30.432740
PR02   3082.221294  18017.119730  17808.885559    324.381081
PR03  11147.549378   1073.996683  22962.314210    140.317108
PR04  12560.509021 -16895.311061  14432.946979    272.127230
PR07 -11225.473608   -656.877399 -22856.689636    -44.642842
PR08 -12649.922969  16367.478923 -14868.650626     21.814268
PR09 -15742.723359 -19793.400984  -3003.181498     22.902831
PR10 -18391.173990 -11411.691825  13407.721415     29.601439
PR11 -10600.257356   4509.080612  22771.991489    -37.514063
PR13  15993.673852  19598.777344   3330.954658    -13.528631
PR14  18624.980244  11373.205531 -13210.808777     29.974921
PR15  13076.359769   -472.761134 -21866.327718    -14.561957
PR16  -3065.986835 -16678.371164 -19113.546893     99.161332
PR17  23119.489893    148.938286 -10731.641894    155.511663
PR18  23472.578459  -7901.160944   6231.591370    206.536511
PR19  10990.627498 -11326.746317  20030.561828    -57.905952
PR20  -9438.937683  -8381.390457  22156.785515   -348.464667
PR21 -23318.192896    125.957130  10366.896449      2.378020
PR22 -22450.538464   8579.514311  -8364.904516    -58.796807
PR23  -6512.224421  11499.361060 -21831.956334    171.545779
PR24  10753.136534   7846.917554 -21792.468425   -170.040326
PR26  -8501.153469  -8624.692243  22459.526831     40.577143
EOF
